IRIDIUM 106             
1 41917U 17003A   24142.24659428  .00000488  00000+0  16738-3 0  9993
2 41917  86.3999  44.8462 0001799  89.4960 270.6441 14.34212212384717
IRIDIUM 103             
1 41918U 17003B   24142.23390670  .00000695  00000+0  24130-3 0  9999
2 41918  86.3997  44.7535 0002186  75.9919 284.1520 14.34210828384732
IRIDIUM 109             
1 41919U 17003C   24142.24024916  .00000031  00000+0  41592-5 0  9995
2 41919  86.3998  44.7978 0002534  84.0074 276.1410 14.34211677384704
IRIDIUM 102             
1 41920U 17003D   24142.27831274  .00000566  00000+0  19507-3 0  9995
2 41920  86.3996  44.7217 0002440  86.8717 273.2757 14.34213583384799
IRIDIUM 105             
1 41921U 17003E   24142.59788043  .00000645  00000+0  22324-3 0  9995
2 41921  86.4001  13.0277 0002148  82.1364 278.0076 14.34228657386691
IRIDIUM 104             
1 41922U 17003F   24142.22122967  .00000143  00000+0  44184-4 0  9995
2 41922  86.3999  44.7764 0002620  80.6959 279.4533 14.34209069384773
IRIDIUM 114             
1 41923U 17003G   24142.22756679  .00000077  00000+0  20424-4 0  9996
2 41923  86.3999  44.7597 0002035  89.9773 270.1656 14.34212298384754
IRIDIUM 108             
1 41924U 17003H   24142.60469453  .00000471  00000+0  16099-3 0  9990
2 41924  86.3994  12.9510 0001981  88.9016 271.2407 14.34218184386668
